FENGYUN 1C DEB          
1 30208U 99025VR  17345.96439682  .00000185  00000-0  10984-3 0  9994
2 30208  98.7626  17.5678 0036108  69.3454   1.2871 14.18554177563608
